     2.100          NAVIGATION                              RINEX VERSION / TYPE
fic2rin                                 05/06/2016 00:29:05 PGM / RUN BY / DATE
                                                            END OF HEADER
21 16  5  5 19 59 44.0 -.521626323462D-03 -.136424205266D-11  .000000000000D+00
     .600000000000D+01  .218437500000D+02  .543522639900D-08 -.259124171061D+01
     .105611979961D-05  .233775321394D-01  .314787030220D-05  .515361655617D+04
     .417584000000D+06  .324100255966D-06 -.181783323027D+01  .540167093277D-07
     .935799976762D+00  .301531250000D+03 -.179477481498D+01 -.833856162028D-08
     .241081470582D-09  .100000000000D+01  .189500000000D+04  .000000000000D+00
     .240000000000D+01  .000000000000D+00 -.102445483208D-07  .600000000000D+01
     .411216000000D+06  .400000000000D+01
26 16  5  5 19 59 44.0 -.354269053787D-03 -.127329258248D-10  .000000000000D+00
     .100000000000D+02 -.129062500000D+03  .463305012799D-08  .287016920856D+01
    -.671297311783D-05  .102730526123D-02  .866316258907D-05  .515375468636D+04
     .417584000000D+06 -.596046447754D-07  .239113303645D+01  .316649675369D-07
     .960541417857D+00  .213343750000D+03  .144370684887D+00 -.813426739632D-08
    -.410731394325D-09  .100000000000D+01  .189500000000D+04  .000000000000D+00
     .240000000000D+01  .000000000000D+00  .698491930962D-08  .100000000000D+02
     .412386000000D+06  .400000000000D+01
 6 16  5  5 19 59 44.0  .185898039490D-03  .557065504836D-11  .000000000000D+00
     .220000000000D+02  .157812500000D+02  .500413701382D-08 -.472435830986D+00
     .867992639542D-06  .451904837973D-03  .418163836002D-05  .515367166328D+04
     .417584000000D+06 -.353902578354D-07 -.179332769788D+01  .707805156708D-07
     .963656482469D+00  .301656250000D+03 -.146679269387D+01 -.838713507213D-08
     .111076055335D-09  .100000000000D+01  .189500000000D+04  .000000000000D+00
     .240000000000D+01  .000000000000D+00  .419095158577D-08  .220000000000D+02
     .414756000000D+06  .400000000000D+01
30 16  5  5 19 59 44.0  .122744124383D-03  .318323145621D-11  .000000000000D+00
     .200000000000D+01  .155312500000D+02  .537593821512D-08 -.141972436236D+01
     .547617673874D-06  .201433314942D-02  .458210706711D-06  .515360226631D+04
     .417584000000D+06  .372529029846D-08  .141872336213D+01 -.130385160446D-07
     .952132004440D+00  .366906250000D+03  .298598421530D+01 -.889679915882D-08
     .163578242262D-09  .100000000000D+01  .189500000000D+04  .000000000000D+00
     .240000000000D+01  .000000000000D+00  .325962901115D-08  .200000000000D+01
     .415116000000D+06  .400000000000D+01
25 16  5  5 19 59 44.0 -.165901146829D-03 -.704858393874D-11  .000000000000D+00
     .200000000000D+01 -.138593750000D+03  .420303221602D-08 -.263206640139D+01
    -.722147524357D-05  .558497104794D-02  .840798020363D-05  .515376295853D+04
     .417584000000D+06  .670552253723D-07  .239972720910D+01 -.162050127983D-06
     .978568549194D+00  .225531250000D+03  .757813072882D+00 -.796176021070D-08
    -.378944355982D-09  .100000000000D+01  .189500000000D+04  .000000000000D+00
     .240000000000D+01  .000000000000D+00  .558793544769D-08  .200000000000D+01
     .415806000000D+06  .400000000000D+01
31 16  5  5 19 59 44.0  .270439777523D-03 -.181898940355D-11  .000000000000D+00
     .000000000000D+00  .201250000000D+02  .491484758027D-08 -.167663190912D+01
     .892207026482D-06  .817747402471D-02  .100769102573D-05  .515373732758D+04
     .417584000000D+06 -.633299350739D-07  .138351155155D+01 -.199303030968D-06
     .971176258829D+00  .370062500000D+03 -.399773531167D+00 -.864107422114D-08
     .200722646618D-09  .100000000000D+01  .189500000000D+04  .000000000000D+00
     .240000000000D+01  .000000000000D+00 -.135041773319D-07  .000000000000D+00
     .417456000000D+06  .400000000000D+01
 6 16  5  5 21 59 44.0  .185937620699D-03  .557065504836D-11  .000000000000D+00
     .290000000000D+02  .147812500000D+02  .502199490053D-08  .577619835453D+00
     .782310962677D-06  .452027656138D-03  .427104532719D-05  .515367190170D+04
     .424784000000D+06 -.130385160446D-07 -.179338767021D+01 -.316649675369D-07
     .963656911104D+00  .301031250000D+03 -.146666292719D+01 -.839570685775D-08
     .267868300647D-10  .100000000000D+01  .189500000000D+04  .000000000000D+00
     .240000000000D+01  .000000000000D+00  .419095158577D-08  .290000000000D+02
     .417606000000D+06  .400000000000D+01
19 16  5  5 21 59 44.0 -.525710638613D-03  .000000000000D+00  .000000000000D+00
     .100000000000D+02  .343125000000D+02  .425196282560D-08 -.841754817804D+00
     .189431011677D-05  .107909882208D-01  .123046338558D-04  .515361598206D+04
     .424784000000D+06  .158324837685D-06 -.274401729728D+01  .229105353355D-06
     .973530698204D+00  .149281250000D+03  .755819920145D+00 -.788818571745D-08
     .570380901511D-09  .100000000000D+01  .189500000000D+04  .000000000000D+00
     .240000000000D+01  .000000000000D+00 -.149011611938D-07  .100000000000D+02
     .417606000000D+06  .400000000000D+01
21 16  5  5 21 59 44.0 -.521636102349D-03 -.136424205266D-11  .000000000000D+00
     .700000000000D+01  .330000000000D+02  .554915971620D-08 -.154108173811D+01
     .203214585781D-05  .233781274874D-01  .340491533279D-05  .515361360359D+04
     .424784000000D+06  .357627868652D-06 -.181789281638D+01  .473111867905D-06
     .935800414175D+00  .297593750000D+03 -.179471216259D+01 -.861857328389D-08
     .110004582132D-09  .100000000000D+01  .189500000000D+04  .000000000000D+00
     .240000000000D+01  .000000000000D+00 -.102445483208D-07  .700000000000D+01
     .417606000000D+06  .400000000000D+01
25 16  5  5 21 59 44.0 -.165951903909D-03 -.704858393874D-11  .000000000000D+00
     .400000000000D+01 -.142406250000D+03  .424660545959D-08 -.158202720009D+01
    -.737234950066D-05  .558579317294D-02  .802427530289D-05  .515376138496D+04
     .424784000000D+06  .139698386192D-06  .239966976324D+01 -.782310962677D-07
     .978566005179D+00  .233750000000D+03  .757899219739D+00 -.798747556756D-08
    -.357157734196D-09  .100000000000D+01  .189500000000D+04  .000000000000D+00
     .240000000000D+01  .000000000000D+00  .558793544769D-08  .400000000000D+01
     .417606000000D+06  .400000000000D+01
26 16  5  5 21 59 44.0 -.354361254722D-03 -.127329258248D-10  .000000000000D+00
     .110000000000D+02 -.130906250000D+03  .461769234542D-08 -.236323390570D+01
    -.694394111633D-05  .102635857183D-02  .822357833385D-05  .515375623894D+04
     .424784000000D+06 -.409781932831D-07  .239107392432D+01 -.819563865662D-07
     .960538234547D+00  .223781250000D+03  .144719590849D+00 -.822069956799D-08
    -.366086677551D-09  .100000000000D+01  .189500000000D+04  .000000000000D+00
     .240000000000D+01  .000000000000D+00  .698491930962D-08  .110000000000D+02
     .417606000000D+06  .400000000000D+01
30 16  5  5 21 59 44.0  .122767407447D-03  .318323145621D-11  .000000000000D+00
     .120000000000D+02  .119687500000D+02  .526093342471D-08 -.369283099975D+00
     .655651092529D-06  .201469031163D-02  .346451997757D-06  .515360331345D+04
     .424784000000D+06 -.242143869400D-07  .141865921756D+01 -.242143869400D-07
     .952133307900D+00  .365031250000D+03  .298577304454D+01 -.887822695665D-08
     .185007706314D-09  .100000000000D+01  .189500000000D+04  .000000000000D+00
     .240000000000D+01  .000000000000D+00  .325962901115D-08  .120000000000D+02
     .417606000000D+06  .400000000000D+01
31 16  5  5 21 59 44.0  .270426273346D-03 -.181898940355D-11  .000000000000D+00
     .100000000000D+01  .260000000000D+02  .477019869792D-08 -.626403052201D+00
     .119581818581D-05  .817735213786D-02  .661239027977D-06  .515373844147D+04
     .424784000000D+06  .279396772385D-07  .138344871629D+01 -.838190317154D-07
     .971178151845D+00  .365718750000D+03 -.399858589612D+00 -.866607526253D-08
     .298941023522D-09  .100000000000D+01  .189500000000D+04  .000000000000D+00
     .240000000000D+01  .000000000000D+00 -.135041773319D-07  .100000000000D+01
     .417606000000D+06  .400000000000D+01
 1 16  5  5 22  0  0.0  .194585882127D-04  .113686837722D-11  .000000000000D+00
     .260000000000D+02  .114062500000D+02  .511271296502D-08  .216987430900D+00
     .616535544395D-06  .537693558726D-02  .347197055817D-05  .515363570976D+04
     .424800000000D+06  .335276126862D-07 -.178494783687D+01  .335276126862D-07
     .963818864913D+00  .308781250000D+03  .451909072970D+00 -.854607026384D-08
    -.342871424828D-10  .100000000000D+01  .189500000000D+04  .000000000000D+00
     .240000000000D+01  .000000000000D+00  .512227416039D-08  .260000000000D+02
     .417606000000D+06  .400000000000D+01
 2 16  5  5 22  0  0.0  .593468546867D-03 -.204636307899D-11  .000000000000D+00
     .260000000000D+02  .245000000000D+02  .562702010226D-08  .582842464700D+00
     .143796205521D-05  .156598926987D-01  .432878732681D-05  .515375639725D+04
     .424800000000D+06 -.240281224251D-06 -.183002066620D+01  .104308128357D-06
     .942603597669D+00  .289875000000D+03 -.212260567914D+01 -.892144304248D-08
    -.964325882329D-11  .100000000000D+01  .189500000000D+04  .000000000000D+00
     .240000000000D+01  .000000000000D+00 -.200234353542D-07  .260000000000D+02
     .417606000000D+06  .400000000000D+01
 3 16  5  5 22  0  0.0 -.547352246940D-04 -.386535248253D-11  .000000000000D+00
     .410000000000D+02 -.465312500000D+02  .446375736198D-08  .175312091883D+01
    -.254996120930D-05  .240667373873D-03  .106859952211D-04  .515371241570D+04
     .424800000000D+06  .614672899246D-07 -.743165427137D+00  .204890966415D-07
     .959263639375D+00  .175031250000D+03 -.220722349410D+01 -.798247535928D-08
    -.763960393445D-09  .100000000000D+01  .189500000000D+04  .000000000000D+00
     .240000000000D+01  .000000000000D+00  .186264514923D-08  .410000000000D+02
     .417606000000D+06  .400000000000D+01
